{
  "type": "FeatureCollection",
  "features": [
    {
      "type": "Feature",
      "properties": {
        "norad_id": 37836,
        "name": "EUTELSAT 16A",
        "group": "eutelsat",
        "lat": -0.0557935856352763,
        "lon": -63.2654292340273,
        "alt_km": 35765.283429545205,
        "timestamp": "2025-12-03T13:52:09.236918+00:00",
        "meta_object_name": "EUTELSAT 16A",
        "meta_object_id": "2011-057A",
        "meta_epoch": "2025-12-03T06:58:55.780896",
        "meta_mean_motion": 1.00273705,
        "meta_eccentricity": 0.00060487,
        "meta_inclination": 0.0591,
        "meta_ra_of_asc_node": 347.1689,
        "meta_arg_of_pericenter": 271.8127,
        "meta_mean_anomaly": 294.1445,
        "meta_ephemeris_type": 0,
        "meta_classification_type": "U",
        "meta_norad_cat_id": 37836,
        "meta_element_set_no": 999,
        "meta_rev_at_epoch": 536,
        "meta_bstar": 0,
        "meta_mean_motion_dot": 1.23e-06,
        "meta_mean_motion_ddot": 0,
        "tle_line1": "1 37836U 11057A   25337.29092339  .00000123  00000+0  00000+0 0  9992",
        "tle_line2": "2 37836   0.0591 347.1689 0006048 271.8127 294.1445  1.00273705  5366"
      },
      "geometry": {
        "type": "Point",
        "coordinates": [
          -63.2654292340273,
          -0.0557935856352763
        ]
      }
    },
    {
      "type": "Feature",
      "properties": {
        "norad_id": 38992,
        "name": "EUTELSAT 21B",
        "group": "eutelsat",
        "lat": -0.05462382424995309,
        "lon": -57.68638524426677,
        "alt_km": 35774.14762706609,
        "timestamp": "2025-12-03T13:52:09.236929+00:00",
        "meta_object_name": "EUTELSAT 21B",
        "meta_object_id": "2012-062B",
        "meta_epoch": "2025-12-03T07:00:33.125184",
        "meta_mean_motion": 1.0027372,
        "meta_eccentricity": 0.00033567,
        "meta_inclination": 0.068,
        "meta_ra_of_asc_node": 345.6672,
        "meta_arg_of_pericenter": 279.9152,
        "meta_mean_anomaly": 293.549,
        "meta_ephemeris_type": 0,
        "meta_classification_type": "U",
        "meta_norad_cat_id": 38992,
        "meta_element_set_no": 999,
        "meta_rev_at_epoch": 4786,
        "meta_bstar": 0,
        "meta_mean_motion_dot": 1.49e-06,
        "meta_mean_motion_ddot": 0,
        "tle_line1": "1 38992U 12062B   25337.29205006  .00000149  00000+0  00000+0 0  9998",
        "tle_line2": "2 38992   0.0680 345.6672 0003356 279.9152 293.5490  1.00273720 47861"
      },
      "geometry": {
        "type": "Point",
        "coordinates": [
          -57.68638524426677,
          -0.05462382424995309
        ]
      }
    },
    {
      "type": "Feature",
      "properties": {
        "norad_id": 39020,
        "name": "EUTELSAT 70B",
        "group": "eutelsat",
        "lat": 0.00038304325682313444,
        "lon": -8.77761598439981,
        "alt_km": 35792.20970255853,
        "timestamp": "2025-12-03T13:52:09.236941+00:00",
        "meta_object_name": "EUTELSAT 70B",
        "meta_object_id": "2012-069A",
        "meta_epoch": "2025-12-03T03:42:38.697120",
        "meta_mean_motion": 1.00271598,
        "meta_eccentricity": 0.0004331,
        "meta_inclination": 0.0629,
        "meta_ra_of_asc_node": 1.2299,
        "meta_arg_of_pericenter": 240.5331,
        "meta_mean_anomaly": 316.6431,
        "meta_ephemeris_type": 0,
        "meta_classification_type": "U",
        "meta_norad_cat_id": 39020,
        "meta_element_set_no": 999,
        "meta_rev_at_epoch": 4754,
        "meta_bstar": 0,
        "meta_mean_motion_dot": -2.4e-07,
        "meta_mean_motion_ddot": 0,
        "tle_line1": "1 39020U 12069A   25337.15461455 -.00000024  00000+0  00000+0 0  9998",
        "tle_line2": "2 39020   0.0629   1.2299 0004331 240.5331 316.6431  1.00271598 47542"
      },
      "geometry": {
        "type": "Point",
        "coordinates": [
          -8.77761598439981,
          0.00038304325682313444
        ]
      }
    },
    {
      "type": "Feature",
      "properties": {
        "norad_id": 39122,
        "name": "EUTELSAT 117 WEST A",
        "group": "eutelsat",
        "lat": 0.017627634213739925,
        "lon": 163.8532978278182,
        "alt_km": 35786.003316911694,
        "timestamp": "2025-12-03T13:52:09.236953+00:00",
        "meta_object_name": "EUTELSAT 117 WEST A",
        "meta_object_id": "2013-012A",
        "meta_epoch": "2025-12-03T08:49:20.417952",
        "meta_mean_motion": 1.00271901,
        "meta_eccentricity": 0.00031589,
        "meta_inclination": 0.0376,
        "meta_ra_of_asc_node": 56.9809,
        "meta_arg_of_pericenter": 196.7734,
        "meta_mean_anomaly": 194.2496,
        "meta_ephemeris_type": 0,
        "meta_classification_type": "U",
        "meta_norad_cat_id": 39122,
        "meta_element_set_no": 999,
        "meta_rev_at_epoch": 4647,
        "meta_bstar": 0,
        "meta_mean_motion_dot": 5e-08,
        "meta_mean_motion_ddot": 0,
        "tle_line1": "1 39122U 13012A   25337.36759743  .00000005  00000+0  00000+0 0  9991",
        "tle_line2": "2 39122   0.0376  56.9809 0003158 196.7734 194.2496  1.00271901 46473"
      },
      "geometry": {
        "type": "Point",
        "coordinates": [
          163.8532978278182,
          0.017627634213739925
        ]
      }
    },
    {
      "type": "Feature",
      "properties": {
        "norad_id": 39163,
        "name": "EUTELSAT 7B",
        "group": "eutelsat",
        "lat": -0.07696204279314707,
        "lon": -72.3401785855473,
        "alt_km": 35770.4972154716,
        "timestamp": "2025-12-03T13:52:09.236965+00:00",
        "meta_object_name": "EUTELSAT 7B",
        "meta_object_id": "2013-022A",
        "meta_epoch": "2025-12-03T04:33:38.733696",
        "meta_mean_motion": 1.00269662,
        "meta_eccentricity": 0.00041713,
        "meta_inclination": 0.0677,
        "meta_ra_of_asc_node": 359.3199,
        "meta_arg_of_pericenter": 311.3455,
        "meta_mean_anomaly": 197.0315,
        "meta_ephemeris_type": 0,
        "meta_classification_type": "U",
        "meta_norad_cat_id": 39163,
        "meta_element_set_no": 999,
        "meta_rev_at_epoch": 4599,
        "meta_bstar": 0,
        "meta_mean_motion_dot": 6.7e-07,
        "meta_mean_motion_ddot": 0,
        "tle_line1": "1 39163U 13022A   25337.19003164  .00000067  00000+0  00000+0 0  9995",
        "tle_line2": "2 39163   0.0677 359.3199 0004171 311.3455 197.0315  1.00269662 45993"
      },
      "geometry": {
        "type": "Point",
        "coordinates": [
          -72.3401785855473,
          -0.07696204279314707
        ]
      }
    },
    {
      "type": "Feature",
      "properties": {
        "norad_id": 39612,
        "name": "EXPRESS-AT1",
        "group": "eutelsat",
        "lat": 0.021272663793526287,
        "lon": -23.318363517750765,
        "alt_km": 35787.883531809166,
        "timestamp": "2025-12-03T13:52:09.236977+00:00",
        "meta_object_name": "EXPRESS-AT1",
        "meta_object_id": "2014-010A",
        "meta_epoch": "2025-12-03T02:55:51.885120",
        "meta_mean_motion": 1.00269797,
        "meta_eccentricity": 3.076e-05,
        "meta_inclination": 0.016,
        "meta_ra_of_asc_node": 295.0879,
        "meta_arg_of_pericenter": 219.4551,
        "meta_mean_anomaly": 17.6455,
        "meta_ephemeris_type": 0,
        "meta_classification_type": "U",
        "meta_norad_cat_id": 39612,
        "meta_element_set_no": 999,
        "meta_rev_at_epoch": 4285,
        "meta_bstar": 0,
        "meta_mean_motion_dot": 9.8e-07,
        "meta_mean_motion_ddot": 0,
        "tle_line1": "1 39612U 14010A   25337.12212830  .00000098  00000+0  00000+0 0  9991",
        "tle_line2": "2 39612   0.0160 295.0879 0000307 219.4551  17.6455  1.00269797 42855"
      },
      "geometry": {
        "type": "Point",
        "coordinates": [
          -23.318363517750765,
          0.021272663793526287
        ]
      }
    },
    {
      "type": "Feature",
      "properties": {
        "norad_id": 39613,
        "name": "EXPRESS-AT2",
        "group": "eutelsat",
        "lat": 0.04119650447629355,
        "lon": 60.55595513164818,
        "alt_km": 35789.77035151281,
        "timestamp": "2025-12-03T13:52:09.236989+00:00",
        "meta_object_name": "EXPRESS-AT2",
        "meta_object_id": "2014-010B",
        "meta_epoch": "2025-12-03T07:34:18.762816",
        "meta_mean_motion": 1.00271833,
        "meta_eccentricity": 0.00012635,
        "meta_inclination": 0.0176,
        "meta_ra_of_asc_node": 311.6073,
        "meta_arg_of_pericenter": 335.6229,
        "meta_mean_anomaly": 38.6215,
        "meta_ephemeris_type": 0,
        "meta_classification_type": "U",
        "meta_norad_cat_id": 39613,
        "meta_element_set_no": 999,
        "meta_rev_at_epoch": 4253,
        "meta_bstar": 0,
        "meta_mean_motion_dot": -2.62e-06,
        "meta_mean_motion_ddot": 0,
        "tle_line1": "1 39613U 14010B   25337.31549494 -.00000262  00000+0  00000+0 0  9996",
        "tle_line2": "2 39613   0.0176 311.6073 0001263 335.6229  38.6215  1.00271833 42535"
      },
      "geometry": {
        "type": "Point",
        "coordinates": [
          60.55595513164818,
          0.04119650447629355
        ]
      }
    }
  ]
}